CCSDS_OMM_VERS = 2.0
CREATION_DATE  = 
ORIGINATOR     = 

OBJECT_NAME    = STARLINK-36202
OBJECT_ID      = 2025-298V
CENTER_NAME    = EARTH
REF_FRAME      = TEME
TIME_SYSTEM    = UTC
MEAN_ELEMENT_THEORY = SGP/SGP4

EPOCH          = 2025-12-30T22:00:03.000096
MEAN_MOTION    = 15.59378407
ECCENTRICITY   = .00036273
INCLINATION    = 69.9994
RA_OF_ASC_NODE = 198.4282
ARG_OF_PERICENTER = 273.8871
MEAN_ANOMALY   = 37.0855

EPHEMERIS_TYPE = 0
CLASSIFICATION_TYPE = U
NORAD_CAT_ID   = 67094
ELEMENT_SET_NO = 999
REV_AT_EPOCH   = 389
BSTAR          = -.2398833E-1
MEAN_MOTION_DOT = -.170437E-1
MEAN_MOTION_DDOT = 0

CCSDS_OMM_VERS = 2.0
CREATION_DATE  = 
ORIGINATOR     = 

OBJECT_NAME    = STARLINK-36227
OBJECT_ID      = 2025-298W
CENTER_NAME    = EARTH
REF_FRAME      = TEME
TIME_SYSTEM    = UTC
MEAN_ELEMENT_THEORY = SGP/SGP4

EPOCH          = 2025-12-30T22:00:03.000096
MEAN_MOTION    = 15.59373864
ECCENTRICITY   = .00036736
INCLINATION    = 69.9993
RA_OF_ASC_NODE = 198.4254
ARG_OF_PERICENTER = 274.1298
MEAN_ANOMALY   = 38.7901

EPHEMERIS_TYPE = 0
CLASSIFICATION_TYPE = U
NORAD_CAT_ID   = 67095
ELEMENT_SET_NO = 999
REV_AT_EPOCH   = 383
BSTAR          = -.23983984E-1
MEAN_MOTION_DOT = -.170386E-1
MEAN_MOTION_DDOT = 0

CCSDS_OMM_VERS = 2.0
CREATION_DATE  = 
ORIGINATOR     = 

OBJECT_NAME    = STARLINK-36228
OBJECT_ID      = 2025-298X
CENTER_NAME    = EARTH
REF_FRAME      = TEME
TIME_SYSTEM    = UTC
MEAN_ELEMENT_THEORY = SGP/SGP4

EPOCH          = 2025-12-30T22:00:03.000096
MEAN_MOTION    = 15.59350465
ECCENTRICITY   = .00037884
INCLINATION    = 69.9994
RA_OF_ASC_NODE = 198.4236
ARG_OF_PERICENTER = 274.9297
MEAN_ANOMALY   = 39.9038

EPHEMERIS_TYPE = 0
CLASSIFICATION_TYPE = U
NORAD_CAT_ID   = 67096
ELEMENT_SET_NO = 999
REV_AT_EPOCH   = 383
BSTAR          = -.23596733E-1
MEAN_MOTION_DOT = -.1648436E-1
MEAN_MOTION_DDOT = 0

CCSDS_OMM_VERS = 2.0
CREATION_DATE  = 
ORIGINATOR     = 

OBJECT_NAME    = STARLINK-36222
OBJECT_ID      = 2025-298Y
CENTER_NAME    = EARTH
REF_FRAME      = TEME
TIME_SYSTEM    = UTC
MEAN_ELEMENT_THEORY = SGP/SGP4

EPOCH          = 2025-12-30T22:00:03.000096
MEAN_MOTION    = 15.59374687
ECCENTRICITY   = .00036611
INCLINATION    = 69.9992
RA_OF_ASC_NODE = 198.4209
ARG_OF_PERICENTER = 272.5156
MEAN_ANOMALY   = 44.2348

EPHEMERIS_TYPE = 0
CLASSIFICATION_TYPE = U
NORAD_CAT_ID   = 67097
ELEMENT_SET_NO = 999
REV_AT_EPOCH   = 383
BSTAR          = -.24026359E-1
MEAN_MOTION_DOT = -.1706602E-1
MEAN_MOTION_DDOT = 0

CCSDS_OMM_VERS = 2.0
CREATION_DATE  = 
ORIGINATOR     = 

OBJECT_NAME    = STARLINK-36205
OBJECT_ID      = 2025-298Z
CENTER_NAME    = EARTH
REF_FRAME      = TEME
TIME_SYSTEM    = UTC
MEAN_ELEMENT_THEORY = SGP/SGP4

EPOCH          = 2025-12-30T22:00:03.000096
MEAN_MOTION    = 15.59363222
ECCENTRICITY   = .00036745
INCLINATION    = 69.9992
RA_OF_ASC_NODE = 198.4187
ARG_OF_PERICENTER = 272.9198
MEAN_ANOMALY   = 45.8063

EPHEMERIS_TYPE = 0
CLASSIFICATION_TYPE = U
NORAD_CAT_ID   = 67098
ELEMENT_SET_NO = 999
REV_AT_EPOCH   = 389
BSTAR          = -.23981019E-1
MEAN_MOTION_DOT = -.170305E-1
MEAN_MOTION_DDOT = 0

CCSDS_OMM_VERS = 2.0
CREATION_DATE  = 
ORIGINATOR     = 

OBJECT_NAME    = STARLINK-36193
OBJECT_ID      = 2025-298AA
CENTER_NAME    = EARTH
REF_FRAME      = TEME
TIME_SYSTEM    = UTC
MEAN_ELEMENT_THEORY = SGP/SGP4

EPOCH          = 2025-12-30T22:00:03.000096
MEAN_MOTION    = 15.51931570
ECCENTRICITY   = .00034589
INCLINATION    = 69.9990
RA_OF_ASC_NODE = 198.5561
ARG_OF_PERICENTER = 276.5428
MEAN_ANOMALY   = 282.6837

EPHEMERIS_TYPE = 0
CLASSIFICATION_TYPE = U
NORAD_CAT_ID   = 67099
ELEMENT_SET_NO = 999
REV_AT_EPOCH   = 383
BSTAR          = -.32425709E-1
MEAN_MOTION_DOT = -.1742633E-1
MEAN_MOTION_DDOT = 0

CCSDS_OMM_VERS = 2.0
CREATION_DATE  = 
ORIGINATOR     = 

OBJECT_NAME    = STARLINK-36215
OBJECT_ID      = 2025-298AB
CENTER_NAME    = EARTH
REF_FRAME      = TEME
TIME_SYSTEM    = UTC
MEAN_ELEMENT_THEORY = SGP/SGP4

EPOCH          = 2025-12-30T22:00:03.000096
MEAN_MOTION    = 15.59377133
ECCENTRICITY   = .00036297
INCLINATION    = 69.9992
RA_OF_ASC_NODE = 198.4116
ARG_OF_PERICENTER = 274.8880
MEAN_ANOMALY   = 49.5149

EPHEMERIS_TYPE = 0
CLASSIFICATION_TYPE = U
NORAD_CAT_ID   = 67100
ELEMENT_SET_NO = 999
REV_AT_EPOCH   = 389
BSTAR          = -.24017651E-1
MEAN_MOTION_DOT = -.1706168E-1
MEAN_MOTION_DDOT = 0

CCSDS_OMM_VERS = 2.0
CREATION_DATE  = 
ORIGINATOR     = 

OBJECT_NAME    = STARLINK-36200
OBJECT_ID      = 2025-298AC
CENTER_NAME    = EARTH
REF_FRAME      = TEME
TIME_SYSTEM    = UTC
MEAN_ELEMENT_THEORY = SGP/SGP4

EPOCH          = 2025-12-30T22:00:03.000096
MEAN_MOTION    = 15.59372255
ECCENTRICITY   = .0003669
INCLINATION    = 69.9993
RA_OF_ASC_NODE = 198.4170
ARG_OF_PERICENTER = 272.5385
MEAN_ANOMALY   = 48.0657

EPHEMERIS_TYPE = 0
CLASSIFICATION_TYPE = U
NORAD_CAT_ID   = 67101
ELEMENT_SET_NO = 999
REV_AT_EPOCH   = 389
BSTAR          = -.24040354E-1
MEAN_MOTION_DOT = -.1707358E-1
MEAN_MOTION_DDOT = 0

CCSDS_OMM_VERS = 2.0
CREATION_DATE  = 
ORIGINATOR     = 

OBJECT_NAME    = STARLINK-36255
OBJECT_ID      = 2025-299A
CENTER_NAME    = EARTH
REF_FRAME      = TEME
TIME_SYSTEM    = UTC
MEAN_ELEMENT_THEORY = SGP/SGP4

EPOCH          = 2025-12-30T22:00:03.000096
MEAN_MOTION    = 15.60546159
ECCENTRICITY   = .00015842
INCLINATION    = 42.9991
RA_OF_ASC_NODE = 205.7652
ARG_OF_PERICENTER = 264.0351
MEAN_ANOMALY   = 25.0806

EPHEMERIS_TYPE = 0
CLASSIFICATION_TYPE = U
NORAD_CAT_ID   = 67102
ELEMENT_SET_NO = 999
REV_AT_EPOCH   = 373
BSTAR          = -.25637009E-1
MEAN_MOTION_DOT = -.1920308E-1
MEAN_MOTION_DDOT = 0

CCSDS_OMM_VERS = 2.0
CREATION_DATE  = 
ORIGINATOR     = 

OBJECT_NAME    = STARLINK-36256
OBJECT_ID      = 2025-299B
CENTER_NAME    = EARTH
REF_FRAME      = TEME
TIME_SYSTEM    = UTC
MEAN_ELEMENT_THEORY = SGP/SGP4

EPOCH          = 2025-12-30T22:00:03.000096
MEAN_MOTION    = 15.60568830
ECCENTRICITY   = .00015638
INCLINATION    = 42.9989
RA_OF_ASC_NODE = 205.7615
ARG_OF_PERICENTER = 266.1499
MEAN_ANOMALY   = 24.7011

EPHEMERIS_TYPE = 0
CLASSIFICATION_TYPE = U
NORAD_CAT_ID   = 67103
ELEMENT_SET_NO = 999
REV_AT_EPOCH   = 373
BSTAR          = -.2565284E-1
MEAN_MOTION_DOT = -.1922834E-1
MEAN_MOTION_DDOT = 0

CCSDS_OMM_VERS = 2.0
CREATION_DATE  = 
ORIGINATOR     = 

OBJECT_NAME    = STARLINK-36258
OBJECT_ID      = 2025-299C
CENTER_NAME    = EARTH
REF_FRAME      = TEME
TIME_SYSTEM    = UTC
MEAN_ELEMENT_THEORY = SGP/SGP4

EPOCH          = 2025-12-30T22:00:03.000096
MEAN_MOTION    = 15.60585847
ECCENTRICITY   = .00014848
INCLINATION    = 42.9989
RA_OF_ASC_NODE = 205.7563
ARG_OF_PERICENTER = 263.8127
MEAN_ANOMALY   = 28.8232

EPHEMERIS_TYPE = 0
CLASSIFICATION_TYPE = U
NORAD_CAT_ID   = 67104
ELEMENT_SET_NO = 999
REV_AT_EPOCH   = 373
BSTAR          = -.25666345E-1
MEAN_MOTION_DOT = -.1924795E-1
MEAN_MOTION_DDOT = 0

CCSDS_OMM_VERS = 2.0
CREATION_DATE  = 
ORIGINATOR     = 

OBJECT_NAME    = STARLINK-36261
OBJECT_ID      = 2025-299D
CENTER_NAME    = EARTH
REF_FRAME      = TEME
TIME_SYSTEM    = UTC
MEAN_ELEMENT_THEORY = SGP/SGP4

EPOCH          = 2025-12-30T22:00:03.000096
MEAN_MOTION    = 15.60606296
ECCENTRICITY   = .0001512
INCLINATION    = 42.9990
RA_OF_ASC_NODE = 205.7524
ARG_OF_PERICENTER = 265.3802
MEAN_ANOMALY   = 28.9705

EPHEMERIS_TYPE = 0
CLASSIFICATION_TYPE = U
NORAD_CAT_ID   = 67105
ELEMENT_SET_NO = 999
REV_AT_EPOCH   = 373
BSTAR          = -.25573943E-1
MEAN_MOTION_DOT = -.1920048E-1
MEAN_MOTION_DDOT = 0

