STARLINK-36202          
1 67094U 25298V   25364.91670139 -.01704370  00000+0 -23988-1 0  9992
2 67094  69.9994 198.4282 0003627 273.8871  37.0855 15.59378407  3899
STARLINK-36227          
1 67095U 25298W   25364.91670139 -.01703860  00000+0 -23984-1 0  9992
2 67095  69.9993 198.4254 0003673 274.1298  38.7901 15.59373864  3832
STARLINK-36228          
1 67096U 25298X   25364.91670139 -.01648436  00000+0 -23597-1 0  9990
2 67096  69.9994 198.4236 0003788 274.9297  39.9038 15.59350465  3834
STARLINK-36222          
1 67097U 25298Y   25364.91670139 -.01706602  00000+0 -24026-1 0  9999
2 67097  69.9992 198.4209 0003661 272.5156  44.2348 15.59374687  3836
STARLINK-36205          
1 67098U 25298Z   25364.91670139 -.01703050  00000+0 -23981-1 0  9993
2 67098  69.9992 198.4187 0003674 272.9198  45.8063 15.59363222  3896
STARLINK-36193          
1 67099U 25298AA  25364.91670139 -.01742633  00000+0 -32426-1 0  9998
2 67099  69.9990 198.5561 0003458 276.5428 282.6837 15.51931570  3831
STARLINK-36215          
1 67100U 25298AB  25364.91670139 -.01706168  00000+0 -24018-1 0  9992
2 67100  69.9992 198.4116 0003629 274.8880  49.5149 15.59377133  3893
STARLINK-36200          
1 67101U 25298AC  25364.91670139 -.01707358  00000+0 -24040-1 0  9990
2 67101  69.9993 198.4170 0003669 272.5385  48.0657 15.59372255  3892
STARLINK-36255          
1 67102U 25299A   25364.91670139 -.01920308  00000+0 -25637-1 0  9997
2 67102  42.9991 205.7652 0001584 264.0351  25.0806 15.60546159  3734
STARLINK-36256          
1 67103U 25299B   25364.91670139 -.01922834  00000+0 -25653-1 0  9992
2 67103  42.9989 205.7615 0001563 266.1499  24.7011 15.60568830  3738
STARLINK-36258          
1 67104U 25299C   25364.91670139 -.01924795  00000+0 -25666-1 0  9995
2 67104  42.9989 205.7563 0001484 263.8127  28.8232 15.60585847  3732
STARLINK-36261          
1 67105U 25299D   25364.91670139 -.01920048  00000+0 -25574-1 0  9991
2 67105  42.9990 205.7524 0001512 265.3802  28.9705 15.60606296  3739
